H1 CPF 01  gfz 2021 10 21 12  7942 tandemx   
H2 1003001  6202 36605    2021 10 21 00 59 42 2021 10 26 00 00 42   120 1 1  0 0 0
H9
10 0 59508  69822.000000  0   -1146161.734   -514882.446   6761799.077
10 0 59508  69942.000000  0   -1977774.176   -161752.866   6585453.860
10 0 59508  70062.000000  0   -2768541.278    208396.682   6293359.290
10 0 59508  70182.000000  0   -3504415.086    588267.604   5890618.610
10 0 59508  70302.000000  0   -4172425.233    970151.071   5384276.946
10 0 59508  70422.000000  0   -4760912.920   1346082.306   4783204.062
10 0 59508  70542.000000  0   -5259741.644   1708005.097   4097944.429
10 0 59508  70662.000000  0   -5660480.064   2047942.350   3340535.462
10 0 59508  70782.000000  0   -5956552.610   2358169.220   2524297.809
10 0 59508  70902.000000  0   -6143355.634   2631385.034   1663600.496
10 0 59508  71022.000000  0   -6218335.819   2860880.149    773603.741
10 0 59508  71142.000000  0   -6181026.439   3040692.813   -130015.807
10 0 59508  71262.000000  0   -6033041.420   3165751.981  -1031349.574
10 0 59508  71382.000000  0   -5778027.525   3232002.066  -1914546.051
10 0 59508  71502.000000  0   -5421575.704   3236507.460  -2764098.570
10 0 59508  71622.000000  0   -4971092.748   3177532.880  -3565123.818
10 0 59508  71742.000000  0   -4435639.056   3054598.588  -4303625.110
10 0 59508  71862.000000  0   -3825736.775   2868509.431  -4966734.880
10 0 59508  71982.000000  0   -3153154.223   2621357.422  -5542932.857
10 0 59508  72102.000000  0   -2430673.080   2316499.234  -6022236.390
10 0 59508  72222.000000  0   -1671841.839   1958509.293  -6396363.892
10 0 59508  72342.000000  0    -890719.929   1553108.421  -6658865.667
10 0 59508  72462.000000  0    -101620.257   1107071.357  -6805223.881
10 0 59508  72582.000000  0     681147.388    628114.146  -6832921.321
10 0 59508  72702.000000  0    1443529.183    124763.595  -6741481.824
10 0 59508  72822.000000  0    2171974.892   -393791.514  -6532477.251
10 0 59508  72942.000000  0    2853672.747   -917863.568  -6209503.071
10 0 59508  73062.000000  0    3476771.953  -1437442.296  -5778123.213
10 0 59508  73182.000000  0    4030587.559  -1942380.690  -5245784.096
10 0 59508  73302.000000  0    4505787.316  -2422590.698  -4621698.115
10 0 59508  73422.000000  0    4894554.457  -2868243.646  -3916694.751
10 0 59508  73542.000000  0    5190723.663  -3269970.878  -3143042.596
10 0 59508  73662.000000  0    5389888.376  -3619061.041  -2314243.184
10 0 59508  73782.000000  0    5489475.036  -3907649.327  -1444798.400
10 0 59508  73902.000000  0    5488781.648  -4128894.126   -549956.646
10 0 59508  74022.000000  0    5388979.625  -4277136.481    354558.444
10 0 59508  74142.000000  0    5193077.860  -4348038.227   1252831.466
10 0 59508  74262.000000  0    4905848.106  -4338693.880   2129044.434
10 0 59508  74382.000000  0    4533715.009  -4247712.606   2967764.421
10 0 59508  74502.000000  0    4084613.807  -4075269.212   3754222.536
10 0 59508  74622.000000  0    3567819.485  -3823124.147   4474579.878
10 0 59508  74742.000000  0    2993750.068  -3494610.377   5116174.624
10 0 59508  74862.000000  0    2373751.525  -3094587.784   5667743.994
10 0 59508  74982.000000  0    1719868.788  -2629367.557   6119619.865
10 0 59508  75102.000000  0    1044607.195  -2106607.899   6463892.704
10 0 59508  75222.000000  0     360690.918  -1535184.379   6694543.840
10 0 59508  75342.000000  0    -319177.772   -925036.682   6807544.822
10 0 59508  75462.000000  0    -982553.762   -286993.928   6800923.051
10 0 59508  75582.000000  0   -1617475.858    367417.511   6674793.769
10 0 59508  75702.000000  0   -2212681.735   1026181.792   6431358.188
10 0 59508  75822.000000  0   -2757807.714   1677013.319   6074867.532
10 0 59508  75942.000000  0   -3243570.318   2307585.157   5611553.640
10 0 59508  76062.000000  0   -3661927.565   2905763.354   5049526.772
10 0 59508  76182.000000  0   -4006216.701   3459842.632   4398639.207
10 0 59508  76302.000000  0   -4271265.408   3958778.622   3670317.546
10 0 59508  76422.000000  0   -4453474.465   4392412.656   2877365.152
10 0 59508  76542.000000  0   -4550868.483   4751683.637   2033736.594
10 0 59508  76662.000000  0   -4563113.133   5028821.209   1154288.587
10 0 59508  76782.000000  0   -4491499.753   5217514.532    254512.728
10 0 59508  76902.000000  0   -4338897.696   5313054.135   -649744.493
10 0 59508  77022.000000  0   -4109673.831   5312443.318  -1542571.234
10 0 59508  77142.000000  0   -3809579.560   5214471.099  -2408280.197
10 0 59508  77262.000000  0   -3445612.025   5019751.201  -3231690.607
10 0 59508  77382.000000  0   -3025851.699   4730722.298  -3998399.128
10 0 59508  77502.000000  0   -2559281.696   4351611.647  -4695030.941
10 0 59508  77622.000000  0   -2055593.882   3888365.135  -5309467.628
10 0 59508  77742.000000  0   -1524987.317   3348546.984  -5831050.104
10 0 59508  77862.000000  0    -977961.905   2741208.888  -6250754.858
10 0 59508  77982.000000  0    -425111.661   2076731.984  -6561338.882
10 0 59508  78102.000000  0     123077.314   1366647.034  -6757452.710
10 0 59508  78222.000000  0     656420.627    623435.144  -6835723.251
10 0 59508  78342.000000  0    1165220.555   -139687.800  -6794806.337
10 0 59508  78462.000000  0    1640438.379   -909001.825  -6635406.415
10 0 59508  78582.000000  0    2073850.481  -1670523.041  -6360264.689
10 0 59508  78702.000000  0    2458188.351  -2410251.087  -5974117.473
10 0 59508  78822.000000  0    2787259.917  -3114421.174  -5483624.601
10 0 59508  78942.000000  0    3056051.711  -3769760.082  -4897266.449
10 0 59508  79062.000000  0    3260807.545  -4363737.698  -4225206.177
10 0 59508  79182.000000  0    3399082.222  -4884808.393  -3479124.018
10 0 59508  79302.000000  0    3469771.725  -5322641.722  -2672024.604
10 0 59508  79422.000000  0    3473116.656  -5668336.454  -1818015.269
10 0 59508  79542.000000  0    3410678.335  -5914609.297   -932060.483
10 0 59508  79662.000000  0    3285288.018  -6055955.893    -29716.746
10 0 59508  79782.000000  0    3100968.328  -6088776.965    873147.113
10 0 59508  79902.000000  0    2862830.786  -6011468.022   1760636.260
10 0 59508  80022.000000  0    2576951.144  -5824468.501   2617120.320
10 0 59508  80142.000000  0    2250224.262  -5530267.850   3427517.014
10 0 59508  80262.000000  0    1890204.352  -5133371.224   4177563.160
10 0 59508  80382.000000  0    1504934.406  -4640225.841   4854069.824
10 0 59508  80502.000000  0    1102769.668  -4059108.865   5445155.413
10 0 59508  80622.000000  0     692197.681  -3399979.848   5940454.340
10 0 59508  80742.000000  0     281659.543  -2674300.279   6331293.637
10 0 59508  80862.000000  0    -120622.204  -1894827.988   6610837.726
10 0 59508  80982.000000  0    -506806.297  -1075389.566   6774201.542
10 0 59508  81102.000000  0    -869584.212   -230633.511   6818532.015
10 0 59508  81222.000000  0   -1202317.468    624232.722   6743055.020
10 0 59508  81342.000000  0   -1499158.666   1473716.252   6549087.665
10 0 59508  81462.000000  0   -1755154.134   2302318.689   6240016.647
10 0 59508  81582.000000  0   -1966327.244   3094818.804   5821242.857
10 0 59508  81702.000000  0   -2129740.488   3836553.394   5300092.030
10 0 59508  81822.000000  0   -2243535.933   4513692.047   4685693.669
10 0 59508  81942.000000  0   -2306953.387   5113501.626   3988826.746
10 0 59508  82062.000000  0   -2320325.137   5624593.948   3221734.258
10 0 59508  82182.000000  0   -2285047.403   6037150.511   2397908.552
10 0 59508  82302.000000  0   -2203528.945   6343119.308   1531852.421
10 0 59508  82422.000000  0   -2079117.550   6536379.344    638819.254
10 0 59508  82542.000000  0   -1916006.314   6612867.976   -265462.247
10 0 59508  82662.000000  0   -1719122.454   6570668.141  -1165073.477
10 0 59508  82782.000000  0   -1494000.562   6410052.491  -2044197.620
10 0 59508  82902.000000  0   -1246643.112   6133478.270  -2887407.137
10 0 59508  83022.000000  0    -983374.128   5745539.587  -3679937.418
10 0 59508  83142.000000  0    -710689.381   5252880.725  -4407945.906
10 0 59508  83262.000000  0    -435106.586   4664069.980  -5058751.530
10 0 59508  83382.000000  0    -163018.611   3989439.662  -5621049.500
10 0 59508  83502.000000  0      99447.143   3240895.011  -6085099.881
10 0 59508  83622.000000  0     346559.670   2431695.885  -6442885.650
10 0 59508  83742.000000  0     573102.600   1576218.251  -6688238.959
10 0 59508  83862.000000  0     774479.004    689699.681  -6816937.600
10 0 59508  83982.000000  0     946800.405   -212028.716  -6826769.795
10 0 59508  84102.000000  0    1086958.914  -1112819.770  -6717567.684
10 0 59508  84222.000000  0    1192681.450  -1996491.947  -6491208.129
10 0 59508  84342.000000  0    1262566.016  -2847111.485  -6151584.359
10 0 59508  84462.000000  0    1296099.941  -3649274.628  -5704548.459
10 0 59508  84582.000000  0    1293657.824  -4388386.320  -5157820.552
10 0 59508  84702.000000  0    1256481.200  -5050926.660  -4520865.581
10 0 59508  84822.000000  0    1186639.307  -5624703.334  -3804741.472
10 0 59508  84942.000000  0    1086970.544  -6099085.271  -3021916.356
10 0 59508  85062.000000  0     961006.794  -6465210.547  -2186058.071
10 0 59508  85182.000000  0     812881.945  -6716164.709  -1311798.638
10 0 59508  85302.000000  0     647225.603  -6847123.516   -414476.674
10 0 59508  85422.000000  0     469044.916  -6855455.097    490136.410
10 0 59508  85542.000000  0     283597.606  -6740779.670   1386120.183
10 0 59508  85662.000000  0      96259.294  -6504984.841   2257694.222
10 0 59508  85782.000000  0     -87611.524  -6152194.441   3089506.293
10 0 59508  85902.000000  0    -262807.311  -5688690.005   3866911.521
10 0 59508  86022.000000  0    -424401.049  -5122790.064   4576233.891
10 0 59508  86142.000000  0    -567867.628  -4464691.871   5205009.247
10 0 59508  86262.000000  0    -689194.099  -3726277.742   5742203.703
99
